[
    {
        "CCSDS_OMM_VERS": "3.0",
        "COMMENT": "GENERATED VIA SPACE-TRACK.ORG API",
        "CREATION_DATE": "2025-03-02T18:08:23",
        "ORIGINATOR": "18 SPCS",
        "OBJECT_NAME": "BEIDOU 14",
        "OBJECT_ID": "2012-050A",
        "CENTER_NAME": "EARTH",
        "REF_FRAME": "TEME",
        "TIME_SYSTEM": "UTC",
        "MEAN_ELEMENT_THEORY": "SGP4",
        "EPOCH": "2025-03-02T00:36:36.643104",
        "MEAN_MOTION": "1.86251478",
        "ECCENTRICITY": "0.00420700",
        "INCLINATION": "56.0232",
        "RA_OF_ASC_NODE": "78.5938",
        "ARG_OF_PERICENTER": "255.3358",
        "MEAN_ANOMALY": "104.2494",
        "EPHEMERIS_TYPE": "0",
        "CLASSIFICATION_TYPE": "U",
        "NORAD_CAT_ID": "38774",
        "ELEMENT_SET_NO": "999",
        "REV_AT_EPOCH": "6905",
        "BSTAR": "0.00000000000000",
        "MEAN_MOTION_DOT": "0.00000012",
        "MEAN_MOTION_DDOT": "0.0000000000000",
        "SEMIMAJOR_AXIS": "27904.143",
        "PERIOD": "773.148",
        "APOAPSIS": "21643.401",
        "PERIAPSIS": "21408.615",
        "OBJECT_TYPE": "PAYLOAD",
        "RCS_SIZE": "LARGE",
        "COUNTRY_CODE": "PRC",
        "LAUNCH_DATE": "2012-09-18",
        "SITE": "XSC",
        "DECAY_DATE": null,
        "FILE": "4657142",
        "GP_ID": "282084677",
        "TLE_LINE0": "0 BEIDOU 14",
        "TLE_LINE1": "1 38774U 12050A   25061.02542411  .00000012  00000-0  00000-0 0  9993",
        "TLE_LINE2": "2 38774  56.0232  78.5938 0042070 255.3358 104.2494  1.86251478 69059"
    }
]